CCSDS_OMM_VERS = 2.0
CREATION_DATE  = 
ORIGINATOR     = 

OBJECT_NAME    = ARIANE 5 R/B
OBJECT_ID      = 2004-049H
CENTER_NAME    = EARTH
REF_FRAME      = TEME
TIME_SYSTEM    = UTC
MEAN_ELEMENT_THEORY = SGP/SGP4

EPOCH          = 2025-11-12T01:27:58.517280
MEAN_MOTION    = 14.84914894
ECCENTRICITY   = .00849822
INCLINATION    = 98.2514
RA_OF_ASC_NODE = 115.2477
ARG_OF_PERICENTER = 13.1556
MEAN_ANOMALY   = 347.1846

EPHEMERIS_TYPE = 0
CLASSIFICATION_TYPE = U
NORAD_CAT_ID   = 28499
ELEMENT_SET_NO = 999
REV_AT_EPOCH   = 12833
BSTAR          = .14727379E-3
MEAN_MOTION_DOT = .1272E-4
MEAN_MOTION_DDOT = 0

CCSDS_OMM_VERS = 2.0
CREATION_DATE  = 
ORIGINATOR     = 

OBJECT_NAME    = CZ-2D R/B
OBJECT_ID      = 2005-024B
CENTER_NAME    = EARTH
REF_FRAME      = TEME
TIME_SYSTEM    = UTC
MEAN_ELEMENT_THEORY = SGP/SGP4

EPOCH          = 2025-11-12T17:51:40.683168
MEAN_MOTION    = 15.51189859
ECCENTRICITY   = .0008183
INCLINATION    = 97.3667
RA_OF_ASC_NODE = 323.4467
ARG_OF_PERICENTER = 89.6961
MEAN_ANOMALY   = 270.5228

EPHEMERIS_TYPE = 0
CLASSIFICATION_TYPE = U
NORAD_CAT_ID   = 28738
ELEMENT_SET_NO = 999
REV_AT_EPOCH   = 12160
BSTAR          = .89037E-3
MEAN_MOTION_DOT = .52277E-3
MEAN_MOTION_DDOT = 0

CCSDS_OMM_VERS = 2.0
CREATION_DATE  = 
ORIGINATOR     = 

OBJECT_NAME    = ALOS (DAICHI)
OBJECT_ID      = 2006-002A
CENTER_NAME    = EARTH
REF_FRAME      = TEME
TIME_SYSTEM    = UTC
MEAN_ELEMENT_THEORY = SGP/SGP4

EPOCH          = 2025-11-12T20:52:33.142656
MEAN_MOTION    = 14.69343562
ECCENTRICITY   = .0001068
INCLINATION    = 98.1041
RA_OF_ASC_NODE = 268.5785
ARG_OF_PERICENTER = 52.7498
MEAN_ANOMALY   = 307.3805

EPHEMERIS_TYPE = 0
CLASSIFICATION_TYPE = U
NORAD_CAT_ID   = 28931
ELEMENT_SET_NO = 999
REV_AT_EPOCH   = 5632
BSTAR          = .73467E-3
MEAN_MOTION_DOT = .4293E-4
MEAN_MOTION_DDOT = 0

CCSDS_OMM_VERS = 2.0
CREATION_DATE  = 
ORIGINATOR     = 

OBJECT_NAME    = H-2A R/B
OBJECT_ID      = 2006-002B
CENTER_NAME    = EARTH
REF_FRAME      = TEME
TIME_SYSTEM    = UTC
MEAN_ELEMENT_THEORY = SGP/SGP4

EPOCH          = 2025-11-12T15:36:29.500416
MEAN_MOTION    = 15.13728584
ECCENTRICITY   = .0054664
INCLINATION    = 98.2299
RA_OF_ASC_NODE = 88.9660
ARG_OF_PERICENTER = 279.3045
MEAN_ANOMALY   = 80.2005

EPHEMERIS_TYPE = 0
CLASSIFICATION_TYPE = U
NORAD_CAT_ID   = 28932
ELEMENT_SET_NO = 999
REV_AT_EPOCH   = 7671
BSTAR          = .10494E-2
MEAN_MOTION_DOT = .19576E-3
MEAN_MOTION_DDOT = 0

CCSDS_OMM_VERS = 2.0
CREATION_DATE  = 
ORIGINATOR     = 

OBJECT_NAME    = RESURS-DK 1
OBJECT_ID      = 2006-021A
CENTER_NAME    = EARTH
REF_FRAME      = TEME
TIME_SYSTEM    = UTC
MEAN_ELEMENT_THEORY = SGP/SGP4

EPOCH          = 2025-11-12T14:20:31.176384
MEAN_MOTION    = 15.11913635
ECCENTRICITY   = .0007216
INCLINATION    = 69.9324
RA_OF_ASC_NODE = 179.7209
ARG_OF_PERICENTER = 284.0524
MEAN_ANOMALY   = 75.9839

EPHEMERIS_TYPE = 0
CLASSIFICATION_TYPE = U
NORAD_CAT_ID   = 29228
ELEMENT_SET_NO = 999
REV_AT_EPOCH   = 6982
BSTAR          = .31011E-3
MEAN_MOTION_DOT = .5222E-4
MEAN_MOTION_DDOT = 0

CCSDS_OMM_VERS = 2.0
CREATION_DATE  = 
ORIGINATOR     = 

OBJECT_NAME    = CZ-4B R/B
OBJECT_ID      = 2006-046C
CENTER_NAME    = EARTH
REF_FRAME      = TEME
TIME_SYSTEM    = UTC
MEAN_ELEMENT_THEORY = SGP/SGP4

EPOCH          = 2025-11-12T12:45:59.395680
MEAN_MOTION    = 15.15429822
ECCENTRICITY   = .0033213
INCLINATION    = 97.5784
RA_OF_ASC_NODE = 356.7534
ARG_OF_PERICENTER = 315.1829
MEAN_ANOMALY   = 44.6722

EPHEMERIS_TYPE = 0
CLASSIFICATION_TYPE = U
NORAD_CAT_ID   = 29507
ELEMENT_SET_NO = 999
REV_AT_EPOCH   = 4229
BSTAR          = .60311E-3
MEAN_MOTION_DOT = .11496E-3
MEAN_MOTION_DDOT = 0

CCSDS_OMM_VERS = 2.0
CREATION_DATE  = 
ORIGINATOR     = 

OBJECT_NAME    = CZ-2C R/B
OBJECT_ID      = 2007-010B
CENTER_NAME    = EARTH
REF_FRAME      = TEME
TIME_SYSTEM    = UTC
MEAN_ELEMENT_THEORY = SGP/SGP4

EPOCH          = 2025-11-12T18:37:45.016608
MEAN_MOTION    = 14.20191197
ECCENTRICITY   = .0057892
INCLINATION    = 98.3960
RA_OF_ASC_NODE = 70.9375
ARG_OF_PERICENTER = 274.2033
MEAN_ANOMALY   = 85.2530

EPHEMERIS_TYPE = 0
CLASSIFICATION_TYPE = U
NORAD_CAT_ID   = 31114
ELEMENT_SET_NO = 999
REV_AT_EPOCH   = 96312
BSTAR          = .1665E-3
MEAN_MOTION_DOT = .32E-5
MEAN_MOTION_DDOT = 0

CCSDS_OMM_VERS = 2.0
CREATION_DATE  = 
ORIGINATOR     = 

OBJECT_NAME    = COSMO-SKYMED 1
OBJECT_ID      = 2007-023A
CENTER_NAME    = EARTH
REF_FRAME      = TEME
TIME_SYSTEM    = UTC
MEAN_ELEMENT_THEORY = SGP/SGP4

EPOCH          = 2025-11-12T19:33:55.994688
MEAN_MOTION    = 14.95450798
ECCENTRICITY   = .0001522
INCLINATION    = 97.8865
RA_OF_ASC_NODE = 142.0242
ARG_OF_PERICENTER = 84.3190
MEAN_ANOMALY   = 275.8204

EPHEMERIS_TYPE = 0
CLASSIFICATION_TYPE = U
NORAD_CAT_ID   = 31598
ELEMENT_SET_NO = 999
REV_AT_EPOCH   = 99742
BSTAR          = .11978E-2
MEAN_MOTION_DOT = .13207E-3
MEAN_MOTION_DDOT = 0

CCSDS_OMM_VERS = 2.0
CREATION_DATE  = 
ORIGINATOR     = 

OBJECT_NAME    = COSMOS 2428
OBJECT_ID      = 2007-029A
CENTER_NAME    = EARTH
REF_FRAME      = TEME
TIME_SYSTEM    = UTC
MEAN_ELEMENT_THEORY = SGP/SGP4

EPOCH          = 2025-11-12T18:58:47.777664
MEAN_MOTION    = 14.12888784
ECCENTRICITY   = .0002141
INCLINATION    = 70.9363
RA_OF_ASC_NODE = 88.7548
ARG_OF_PERICENTER = 77.3938
MEAN_ANOMALY   = 282.7422

EPHEMERIS_TYPE = 0
CLASSIFICATION_TYPE = U
NORAD_CAT_ID   = 31792
ELEMENT_SET_NO = 999
REV_AT_EPOCH   = 94758
BSTAR          = -.53777E-4
MEAN_MOTION_DOT = -.148E-5
MEAN_MOTION_DDOT = 0

CCSDS_OMM_VERS = 2.0
CREATION_DATE  = 
ORIGINATOR     = 

OBJECT_NAME    = SL-16 R/B
OBJECT_ID      = 2007-029B
CENTER_NAME    = EARTH
REF_FRAME      = TEME
TIME_SYSTEM    = UTC
MEAN_ELEMENT_THEORY = SGP/SGP4

EPOCH          = 2025-11-12T13:02:25.630080
MEAN_MOTION    = 14.14808857
ECCENTRICITY   = .0002139
INCLINATION    = 70.9765
RA_OF_ASC_NODE = 58.6293
ARG_OF_PERICENTER = 258.9019
MEAN_ANOMALY   = 112.2352

EPHEMERIS_TYPE = 0
CLASSIFICATION_TYPE = U
NORAD_CAT_ID   = 31793
ELEMENT_SET_NO = 999
REV_AT_EPOCH   = 94880
BSTAR          = .25208E-3
MEAN_MOTION_DOT = .439E-5
MEAN_MOTION_DDOT = 0

CCSDS_OMM_VERS = 2.0
CREATION_DATE  = 
ORIGINATOR     = 

OBJECT_NAME    = KORONAS-FOTON
OBJECT_ID      = 2009-003A
CENTER_NAME    = EARTH
REF_FRAME      = TEME
TIME_SYSTEM    = UTC
MEAN_ELEMENT_THEORY = SGP/SGP4

EPOCH          = 2025-11-12T07:03:33.987168
MEAN_MOTION    = 15.40214960
ECCENTRICITY   = .00110172
INCLINATION    = 82.4333
RA_OF_ASC_NODE = 37.6238
ARG_OF_PERICENTER = 213.7916
MEAN_ANOMALY   = 146.2628

EPHEMERIS_TYPE = 0
CLASSIFICATION_TYPE = U
NORAD_CAT_ID   = 33504
ELEMENT_SET_NO = 999
REV_AT_EPOCH   = 92765
BSTAR          = .6499999E-3
MEAN_MOTION_DOT = .26247E-3
MEAN_MOTION_DDOT = 0

CCSDS_OMM_VERS = 2.0
CREATION_DATE  = 
ORIGINATOR     = 

OBJECT_NAME    = CZ-2C R/B
OBJECT_ID      = 2011-030B
CENTER_NAME    = EARTH
REF_FRAME      = TEME
TIME_SYSTEM    = UTC
MEAN_ELEMENT_THEORY = SGP/SGP4

EPOCH          = 2025-11-12T17:23:46.802400
MEAN_MOTION    = 14.80741356
ECCENTRICITY   = .0053482
INCLINATION    = 97.8365
RA_OF_ASC_NODE = 271.5075
ARG_OF_PERICENTER = 12.7002
MEAN_ANOMALY   = 35.5844

EPHEMERIS_TYPE = 0
CLASSIFICATION_TYPE = U
NORAD_CAT_ID   = 37731
ELEMENT_SET_NO = 999
REV_AT_EPOCH   = 77278
BSTAR          = .49943E-3
MEAN_MOTION_DOT = .3887E-4
MEAN_MOTION_DDOT = 0

