ARIANE 5 R/B            
1 28499U 04049H   25316.06109395  .00001272  00000+0  14727-3 0  9994
2 28499  98.2514 115.2477 0084982  13.1556 347.1846 14.84914894128334
CZ-2D R/B               
1 28738U 05024B   25316.74422087  .00052277  00000+0  89037-3 0  9992
2 28738  97.3667 323.4467 0008183  89.6961 270.5228 15.51189859121604
ALOS (DAICHI)           
1 28931U 06002A   25316.86982804  .00004293  00000+0  73467-3 0  9990
2 28931  98.1041 268.5785 0001068  52.7498 307.3805 14.69343562 56324
H-2A R/B                
1 28932U 06002B   25316.65034144  .00019576  00000+0  10494-2 0  9993
2 28932  98.2299  88.9660 0054664 279.3045  80.2005 15.13728584 76717
RESURS-DK 1             
1 29228U 06021A   25316.59758306  .00005222  00000+0  31011-3 0  9991
2 29228  69.9324 179.7209 0007216 284.0524  75.9839 15.11913635 69825
CZ-4B R/B               
1 29507U 06046C   25316.53193745  .00011496  00000+0  60311-3 0  9997
2 29507  97.5784 356.7534 0033213 315.1829  44.6722 15.15429822 42290
CZ-2C R/B               
1 31114U 07010B   25316.77621547  .00000320  00000+0  16650-3 0  9999
2 31114  98.3960  70.9375 0057892 274.2033  85.2530 14.20191197963129
COSMO-SKYMED 1          
1 31598U 07023A   25316.81523142  .00013207  00000+0  11978-2 0  9991
2 31598  97.8865 142.0242 0001522  84.3190 275.8204 14.95450798997422
COSMOS 2428             
1 31792U 07029A   25316.79083076 -.00000148  00000+0 -53777-4 0  9994
2 31792  70.9363  88.7548 0002141  77.3938 282.7422 14.12888784947588
SL-16 R/B               
1 31793U 07029B   25316.54335220  .00000439  00000+0  25208-3 0  9997
2 31793  70.9765  58.6293 0002139 258.9019 112.2352 14.14808857948802
KORONAS-FOTON           
1 33504U 09003A   25316.29414337  .00026247  00000+0  65000-3 0  9991
2 33504  82.4333  37.6238 0011017 213.7916 146.2628 15.40214960927658
CZ-2C R/B               
1 37731U 11030B   25316.72484725  .00003887  00000+0  49943-3 0  9999
2 37731  97.8365 271.5075 0053482  12.7002  35.5844 14.80741356772781
